{
  "norad_id": 60427,
  "name": "STARLINK-32254",
  "history": [
    {
      "epoch": "2026-03-28T09:49:53.753088",
      "apogee_km": 476.0733388992003,
      "perigee_km": 474.4203027216199,
      "latitude_deg": -49.393947803432816,
      "longitude_deg": -97.97360768006183,
      "semi_major_axis_km": 6853.38382081041,
      "eccentricity": 0.0001206,
      "inclination_deg": 53.1599,
      "raan_deg": 130.2961,
      "arg_perigee_deg": 73.6045,
      "mean_anomaly_deg": 286.5089,
      "mean_motion_rev_day": 15.30189366
    }
  ]
}